ONEWEB-0012             
1 44057U 19010A   24140.57552556  .00000104  00000+0  23889-3 0  9999
2 44057  87.9134  19.8148 0002069 108.1809 251.9547 13.16594827251747
ONEWEB-0010             
1 44058U 19010B   24140.60085641  .00000026  00000+0  34842-4 0  9995
2 44058  87.9137  19.7888 0002398  89.8951 270.2455 13.16594664251795
ONEWEB-0008             
1 44059U 19010C   24140.62618902 -.00000004  00000+0 -43266-4 0  9998
2 44059  87.9134  19.7852 0001642  75.6149 284.5164 13.16594661251913
ONEWEB-0007             
1 44060U 19010D   24140.28689837  .00000131  00000+0  31353-3 0  9999
2 44060  87.9065  50.2232 0001949  93.0191 267.1162 13.15549314251594
ONEWEB-0006             
1 44061U 19010E   24140.29085311  .00000152  00000+0  37019-3 0  9996
2 44061  87.9055  50.2084 0002057  89.3094 270.8272 13.15550410251648
ONEWEB-0011             
1 44062U 19010F   24140.26074573  .00000126  00000+0  30110-3 0  9998
2 44062  87.9055  50.2143 0002188  80.2039 279.9338 13.15549275251638
ONEWEB-0013             
1 45131U 20008A   24140.54213303  .00000591  00000+0  16802-2 0  9999
2 45131  87.8659 205.3662 0001639 125.6346 234.4934 13.09382324206786
ONEWEB-0017             
1 45132U 20008B   24140.54067252 -.00000604  00000+0 -17653-2 0  9992
2 45132  87.8961 187.0817 0002394  96.0885 264.0515 13.10371699208599
